UNKNOWN                 
1 85220U          22283.02711235  .00022912  00000+0  58958-2 0  9997
2 85220  99.4066 124.5691 0163151 111.4240 250.4438 14.42416969464401
UNKNOWN                 
1 85237U          22273.53002982  .00007851  00000+0  18272-2 0  9992
2 85237  65.5406 352.8298 0598013 193.6364 164.7920 13.81732984445781
UNKNOWN                 
1 85238U          22283.10637014  .00000072  00000+0  93482-4 0  9993
2 85238  98.9306 236.8945 0064593 101.0473 270.4956 13.87992271449956
UNKNOWN                 
1 85246U          22283.49030298  .00002308  00000+0  89800-3 0  9997
2 85246  98.0879  18.0863 0239226 103.3040 259.4932 14.16119791458707
UNKNOWN                 
1 85266U          22279.21855416  .00016839  00000+0  16410-1 0  9990
2 85266  62.7903 104.8799 3585314 171.7719 196.3417  7.78977651250045
UNKNOWN                 
1 85283U 78098    22280.16257329  .00029012  00000+0  58266-2 0  9999
2 85283  99.6922   1.4890 0025060  44.4376 315.8824 14.61385512371804
UNKNOWN                 
1 85292U          22280.27810690  .00015066  00000+0  35345-2 0  9992
2 85292  65.8308 124.8344 0058935 212.3268 147.4219 14.53565986 18041
UNKNOWN                 
1 85370U          22283.10344274  .00001262  00000+0  11758-2 0  9999
2 85370  99.9747  50.5055 0011039 174.2445   1.9692 13.84180005448431
UNKNOWN                 
1 85373U          22282.12456865  .00000773  00000+0  64050-3 0  9993
2 85373 100.4115 153.5735 0055499  31.7799 120.4839 13.91965798450258
UNKNOWN                 
1 85383U          22283.22616886  .00012813  00000+0  33877-2 0  9997
2 85383  98.6484  20.0137 0102036 256.3229 102.6585 14.45892705417826
UNKNOWN                 
1 85386U          22282.27254486  .00021768  00000+0  52224-2 0  9994
2 85386  98.6470  33.1399 0109509 191.0112 198.8215 14.49817251468209
UNKNOWN                 
1 87014U          22282.16703307  .00002464  00000+0  43211-2 0  9991
2 87014 100.5246 170.7559 0043928 137.6037  16.3633 13.43880804434593
UNKNOWN                 
1 87029U 99025    22283.39547245  .00001066  00000+0  72432-3 0  9990
2 87029  98.8899 339.9746 0082503 242.9603 116.3124 14.00614911430501
UNKNOWN                 
1 87042U 00055    22277.88883413  .00000995  00000+0  64971-3 0  9996
2 87042  98.8493 341.3941 0046286 125.1857 235.3658 14.04051109390339
UNKNOWN                 
1 87051U 76126    22282.80394872  .00001745  00000+0  61358-3 0  9992
2 87051  65.7287 119.1185 0766085 301.8343  51.0304 13.36866868433039
UNKNOWN                 
1 87054U 75052    22282.52072749  .00002042  00000+0  13970-2 0  9994
2 87054 100.0878  14.1612 0018627 207.2570 152.7615 14.00967244453312
UNKNOWN                 
1 87065U 99025    22283.44928306  .00002456  00000+0  30141-2 0  9991
2 87065  98.6892 286.5395 0339291  30.3607 331.6710 13.44620868360556
UNKNOWN                 
1 87071U 68097    22282.67074762  .00002972  00000+0  11880-2 0  9997
2 87071  61.2233  65.3749 0567426  42.0831 322.2347 13.67190283442883
UNKNOWN                 
1 87074U 77121    22283.15480416  .00000294  00000+0  38727-3 0  9994
2 87074  66.1425 190.1473 0151455 188.9598 170.8758 13.70335834444236
UNKNOWN                 
1 87079U          22282.26387221  .01136546  00000+0  17866-1 0  9992
2 87079  70.2577  23.9164 0020303   4.6091 355.5280 15.50391275480552
UNKNOWN                 
1 87091U          22276.16068294  .00447731  00000+0  67229-2 0  9993
2 87091  65.6816 240.1051 0041627  29.9700 330.3820 15.52180065483073
UNKNOWN                 
1 87113U 76126    22283.19396775  .00014578  00000+0  23002-2 0  9999
2 87113  65.6652 247.0700 0332559  96.8227 280.5867 14.41735825464463
UNKNOWN                 
1 87129U 76077    22282.41969030  .00000158  00000+0  14910-2 0  9992
2 87129 102.3201 342.3305 0030308  63.5895 296.8273 12.42141435402569
UNKNOWN                 
1 87159U          22282.53881736  .00001520  00000+0  18818-2 0  9992
2 87159  90.3152  29.7734 0119000  90.5909 270.8885 13.61629820398564
UNKNOWN                 
1 87163U 76126    22283.16558484  .00002471  00000+0  76539-3 0  9991
2 87163  65.6001 187.6614 0709860 212.0739 143.5205 13.51563748420124
UNKNOWN                 
1 87164U          22283.05481299  .00006868  00000+0  18638-2 0  9996
2 87164  65.2094  47.4586 0144562 187.0127 172.8946 14.42187834467709
UNKNOWN                 
1 87203U          22281.29903070  .00022925  00000+0  47173-2 0  9998
2 87203  98.8781 223.8853 0056169 282.7552  76.7372 14.59538822383140
UNKNOWN                 
1 87204U          22281.08705471  .00002102  00000+0  96725-3 0  9994
2 87204  98.6488 149.7036 0051277 109.2335 251.4400 14.21470094459984
UNKNOWN                 
1 87211U          22281.02921781  .00004158  00000+0  15015-2 0  9995
2 87211  98.9997 202.1565 0067875 338.5588  33.6723 14.32848961540702
UNKNOWN                 
1 87213U 99025    22266.40527553  .00021530  00000+0  21028-2 0  9990
2 87213  99.0371 115.9612 0048176 187.4662 172.5841 14.91540015387272
UNKNOWN                 
1 87214U 70025    22280.89017879 -.00000669  00000+0 -58536-3 0  9991
2 87214 100.3176 157.4024 0079438 351.9241   8.0623 13.79425368439835
UNKNOWN                 
1 87228U 99025    22281.19962645  .00013875  00000+0  45866-2 0  9993
2 87228  98.9295  55.8758 0042733 289.0250  70.6309 14.37556575437607
UNKNOWN                 
1 87235U          22256.19300121  .00002213  00000+0  81372-3 0  9990
2 87235  98.9702  46.2639 0150359  57.3060 304.2518 14.27616374415909
UNKNOWN                 
1 87237U 99025    22275.88761642  .00000364  00000+0  31644-3 0  9995
2 87237  99.4072 310.0863 0105527 187.0996 349.2028 13.90194281449543
UNKNOWN                 
1 87239U 81053    22282.84569326  .00005281  00000+0  21500-2 0  9990
2 87239  82.8840 324.4072 0029685  30.1155 330.1729 14.27105300461232
UNKNOWN                 
1 87245U 71015    22283.57568080  .00011228  00000+0  25895-2 0  9990
2 87245  65.6639 213.6142 0523221 319.6434 218.8545 13.95363052451377
UNKNOWN                 
1 87256U 99025    22275.43145272  .00000768  00000+0  48170-3 0  9992
2 87256  98.8390 341.6596 0044214  88.7924 271.8309 14.06962638419520
UNKNOWN                 
1 87271U 71015    22283.05567751  .00008301  00000+0  18238-2 0  9997
2 87271  65.7760  34.3183 0557777 300.7309  53.9945 13.91147282449404
UNKNOWN                 
1 87280U          22283.57150061  .00000349  00000+0  68221-3 0  9994
2 87280  64.6160 218.3263 0111871 183.8935 176.1244 13.47185059377624
UNKNOWN                 
1 87293U 71015    22283.45295431  .00010190  00000+0  23424-2 0  9990
2 87293  65.9087 284.6639 0527641 260.9252  93.1784 13.94748218451082
UNKNOWN                 
1 87300U 70025    22283.40130337  .00001728  00000+0  13508-2 0  9996
2 87300 100.0796 143.2487 0031046 126.1807 234.2228 13.93547272451333
UNKNOWN                 
1 87304U          22281.13306792  .00001968  00000+0  34220-3 0  9995
2 87304  74.0197  61.7778 0021346 324.1684  35.8052 14.68712093475585
UNKNOWN                 
1 87305U 93036    22283.03004571  .00017066  00000+0  30138-2 0  9997
2 87305  73.9941 298.4484 0034553   2.9132 357.2231 14.67035247303721
UNKNOWN                 
1 87320U 71015    22283.48116216  .00001374  00000+0  97121-3 0  9997
2 87320  66.5970 311.7141 0437477  68.7797 295.9409 13.62684692435398
UNKNOWN                 
1 87334U          22283.45047721  .00009615  00000+0  11745-1 0  9991
2 87334  90.0049 270.9512 0076155 189.5995 170.3714 13.64438441226792
UNKNOWN                 
1 87335U          22283.44587156  .00009939  00000+0  12120-1 0  9999
2 87335  89.9921 269.0780 0082412 162.8629 197.5343 13.64335897226853
UNKNOWN                 
1 87397U 94029    22282.31513928  .00047627  00000+0  71815-2 0  9995
2 87397  81.2409 285.8102 0008013 169.5758 190.5616 14.74093861386287
UNKNOWN                 
1 87405U 81053    22283.16834792  .00002889  00000+0  23184-2 0  9994
2 87405  82.7538 248.6213 0058297  54.7284 305.9314 13.89543087449769
UNKNOWN                 
1 87410U 76077    22283.26418631  .00001635  00000+0  15122-1 0  9991
2 87410 102.2701 221.2832 0206703 345.7193  13.8074 12.20204677395523
UNKNOWN                 
1 87416U 81053    22279.34391648  .00006044  00000+0  24085-2 0  9997
2 87416  82.8326 247.6528 0022724  90.6371 269.7419 14.28312547442346
UNKNOWN                 
1 87423U 99057    22282.17116888  .00702565  00000+0  14416-1 0  9991
2 87423  98.7976   1.2188 0020354 323.7812  36.2052 15.43572801388218
UNKNOWN                 
1 87426U          22283.18864557  .00003632  00000+0  18718-2 0  9998
2 87426  65.7847 195.8198 0078318 187.7579 321.7421 14.14747160457784
UNKNOWN                 
1 87433U          22282.34216122  .00002133  00000+0  41786-2 0  9998
2 87433 100.2038  61.0211 0052253 172.6957 187.4940 13.36660579277359
UNKNOWN                 
1 87448U 70025    22281.11398987  .00001417  00000+0  12818-2 0  9990
2 87448 100.4434 336.5383 0065738 316.2767  43.3189 13.84886496448147
UNKNOWN                 
1 87456U 76126    22282.09608219  .00005519  00000+0  95558-3 0  9997
2 87456  65.7954 227.4358 0619048 234.7361 119.4289 13.88573616448999
UNKNOWN                 
1 87468U 93036    22278.06732869  .00021947  00000+0  23714-2 0  9997
2 87468  74.0154  43.5460 0060619  99.8900 260.9130 14.86902947306780
UNKNOWN                 
1 87491U 99025    22280.98486219  .00019529  00000+0  42969-2 0  9992
2 87491  98.6265   7.2309 0067570 129.0670 231.6565 14.56069572412952
UNKNOWN                 
1 87501U 93036    22281.30763010  .00031035  00000+0  79709-2 0  9992
2 87501  74.0301 236.2347 0026546 237.4988 122.3606 14.49859694300483
UNKNOWN                 
1 87517U 76126    22283.03899225  .00006263  00000+0  20289-2 0  9994
2 87517  65.8261 143.3986 0720075 141.3671   6.9150 13.46989233435939
UNKNOWN                 
1 87541U 70025    22282.17469387  .00000383  00000+0  83596-3 0  9997
2 87541  99.8441 170.5948 0058783 182.2653 330.9525 13.34986422427141
